{
 "type": "FeatureCollection",
 "attribution": "Lake outlines: ATREE-CSEI, Map of Lakes in Bengaluru Urban within BBMP Area (CC BY), via OpenCity; \u00a9 OpenStreetMap contributors (ODbL) for lakes marked source=OpenStreetMap",
 "features": [
  {
   "type": "Feature",
   "properties": {
    "id": "subedeharana-kere",
    "name": "Subedeharana Kere",
    "atree_id": 184,
    "atree_name": "Infrastructure Corridor",
    "atree_alt_name": "Subbedarana kere",
    "custodian": "BDA",
    "atree_area_ac": 9.32,
    "note": "ATREE name: Infrastructure Corridor (alt. Subbedarana kere)"
   },
   "geometry": {
    "type": "Polygon",
    "coordinates": [
     [
      [
       77.617192,
       12.8585304
      ],
      [
       77.616903,
       12.858781
      ],
      [
       77.6166409,
       12.8589769
      ],
      [
       77.6162305,
       12.8592334
      ],
      [
       77.6158757,
       12.8596099
      ],
      [
       77.6156105,
       12.8597495
      ],
      [
       77.615466,
       12.8598085
      ],
      [
       77.6153188,
       12.8599294
      ],
      [
       77.6152529,
       12.8600973
      ],
      [
       77.6152329,
       12.8602913
      ],
      [
       77.6153149,
       12.8606552
      ],
      [
       77.6155485,
       12.8607709
      ],
      [
       77.6157809,
       12.8608135
      ],
      [
       77.6158109,
       12.8606754
      ],
      [
       77.6160965,
       12.8606716
      ],
      [
       77.6163214,
       12.860689
      ],
      [
       77.6166426,
       12.8605466
      ],
      [
       77.6167465,
       12.860461
      ],
      [
       77.6167919,
       12.8604153
      ],
      [
       77.6169295,
       12.8602882
      ],
      [
       77.617264,
       12.8601898
      ],
      [
       77.6178246,
       12.860223
      ],
      [
       77.6182199,
       12.8603002
      ],
      [
       77.618257,
       12.8602162
      ],
      [
       77.618215,
       12.8601712
      ],
      [
       77.6181189,
       12.8600945
      ],
      [
       77.6179069,
       12.8599758
      ],
      [
       77.6176208,
       12.8597439
      ],
      [
       77.6174467,
       12.8595146
      ],
      [
       77.6173666,
       12.8592655
      ],
      [
       77.6173616,
       12.8590778
      ],
      [
       77.6173586,
       12.8586062
      ],
      [
       77.617192,
       12.8585304
      ]
     ]
    ]
   }
  },
  {
   "type": "Feature",
   "properties": {
    "id": "pattandur-agrahara",
    "name": "Pattandur Agrahara Lake",
    "atree_id": 167,
    "atree_name": "Pattaduru Agrahara kere-2",
    "atree_alt_name": null,
    "custodian": "BDA",
    "atree_area_ac": 9.02,
    "note": "ATREE name: Pattaduru Agrahara kere-2"
   },
   "geometry": {
    "type": "Polygon",
    "coordinates": [
     [
      [
       77.7389264,
       12.9810686
      ],
      [
       77.7390628,
       12.9810569
      ],
      [
       77.7389805,
       12.980782
      ],
      [
       77.7390351,
       12.9805514
      ],
      [
       77.7391589,
       12.980365
      ],
      [
       77.7392563,
       12.980058
      ],
      [
       77.739271,
       12.9798112
      ],
      [
       77.7392678,
       12.9795169
      ],
      [
       77.7392656,
       12.9793239
      ],
      [
       77.7392651,
       12.9792757
      ],
      [
       77.7391273,
       12.9790416
      ],
      [
       77.7391017,
       12.978795
      ],
      [
       77.7389348,
       12.978541
      ],
      [
       77.7387976,
       12.9787198
      ],
      [
       77.7384838,
       12.9792278
      ],
      [
       77.7379603,
       12.9795531
      ],
      [
       77.7374312,
       12.9798054
      ],
      [
       77.7369931,
       12.9800176
      ],
      [
       77.73708,
       12.9802161
      ],
      [
       77.7371397,
       12.9803526
      ],
      [
       77.7371365,
       12.9804052
      ],
      [
       77.7377273,
       12.9807335
      ],
      [
       77.7382441,
       12.9809187
      ],
      [
       77.7386852,
       12.9809758
      ],
      [
       77.7389264,
       12.9810686
      ]
     ]
    ]
   }
  },
  {
   "type": "Feature",
   "properties": {
    "id": "ambalipura-kelagina",
    "name": "Ambalipura Kelagina Kere",
    "atree_id": 107,
    "atree_name": "Ambalipura Kelagina kere",
    "atree_alt_name": null,
    "custodian": "BBMP",
    "atree_area_ac": 6.1,
    "note": "Candidate for the Harlur/Ambalipura pond report; verify"
   },
   "geometry": {
    "type": "Polygon",
    "coordinates": [
     [
      [
       77.6645472,
       12.917969
      ],
      [
       77.6646679,
       12.9179234
      ],
      [
       77.6648092,
       12.9178373
      ],
      [
       77.6650433,
       12.9177039
      ],
      [
       77.6652244,
       12.9177168
      ],
      [
       77.6654673,
       12.9176436
      ],
      [
       77.6656926,
       12.9175661
      ],
      [
       77.6657853,
       12.9175105
      ],
      [
       77.6656264,
       12.9172008
      ],
      [
       77.6653317,
       12.9164054
      ],
      [
       77.6649237,
       12.9158309
      ],
      [
       77.6642471,
       12.9159408
      ],
      [
       77.6641599,
       12.9160894
      ],
      [
       77.6641864,
       12.9163434
      ],
      [
       77.6642748,
       12.916619
      ],
      [
       77.6643896,
       12.9167998
      ],
      [
       77.6644426,
       12.9171055
      ],
      [
       77.6644647,
       12.9173336
      ],
      [
       77.6645221,
       12.9177857
      ],
      [
       77.6645472,
       12.917969
      ]
     ]
    ]
   }
  },
  {
   "type": "Feature",
   "properties": {
    "id": "sadaramangala",
    "name": "Sadaramangala Lake",
    "atree_id": 62,
    "atree_name": "Kodigehalli lake",
    "atree_alt_name": "Sadaramangala leke",
    "custodian": null,
    "atree_area_ac": 40.45,
    "note": "ATREE name: Kodigehalli lake (alt. Sadaramangala)"
   },
   "geometry": {
    "type": "Polygon",
    "coordinates": [
     [
      [
       77.7245225,
       12.9984223
      ],
      [
       77.7253247,
       12.9988515
      ],
      [
       77.7261384,
       12.9989582
      ],
      [
       77.7278296,
       13.0001043
      ],
      [
       77.727993,
       13.0003752
      ],
      [
       77.7288328,
       13.0009116
      ],
      [
       77.7291389,
       13.0015269
      ],
      [
       77.7296368,
       13.0020774
      ],
      [
       77.7296664,
       13.0029431
      ],
      [
       77.7296385,
       13.0032097
      ],
      [
       77.729936,
       13.0030388
      ],
      [
       77.7299502,
       13.0026229
      ],
      [
       77.730007,
       13.0023302
      ],
      [
       77.7301358,
       13.0016655
      ],
      [
       77.7308918,
       13.0004915
      ],
      [
       77.730897,
       12.9996803
      ],
      [
       77.7309392,
       12.9993489
      ],
      [
       77.7309152,
       12.9991567
      ],
      [
       77.7307689,
       12.9990249
      ],
      [
       77.7304043,
       12.9989344
      ],
      [
       77.7299444,
       12.9989182
      ],
      [
       77.7295418,
       12.9982829
      ],
      [
       77.7292389,
       12.9979611
      ],
      [
       77.7290027,
       12.9978692
      ],
      [
       77.7277621,
       12.9978403
      ],
      [
       77.7273874,
       12.9977918
      ],
      [
       77.7263279,
       12.9975047
      ],
      [
       77.7261679,
       12.9975717
      ],
      [
       77.725779,
       12.9977064
      ],
      [
       77.7256116,
       12.9977094
      ],
      [
       77.7245225,
       12.9984223
      ]
     ]
    ]
   }
  },
  {
   "type": "Feature",
   "properties": {
    "id": "yele-mallappa-shetty",
    "name": "Yele Mallappa Shetty Lake",
    "atree_id": 86,
    "atree_name": "Avalahali kere",
    "atree_alt_name": "Yellamallappashetti Kere",
    "custodian": null,
    "atree_area_ac": 364.65,
    "note": "ATREE name: Avalahali kere (alt. Yellamallappashetti Kere)"
   },
   "geometry": {
    "type": "Polygon",
    "coordinates": [
     [
      [
       77.7239555,
       13.0358973
      ],
      [
       77.7236985,
       13.0360591
      ],
      [
       77.72347,
       13.0363636
      ],
      [
       77.7236128,
       13.0364874
      ],
      [
       77.7239935,
       13.0367444
      ],
      [
       77.7243933,
       13.0369347
      ],
      [
       77.724536,
       13.037106
      ],
      [
       77.7242029,
       13.0374296
      ],
      [
       77.7232987,
       13.0371631
      ],
      [
       77.7227277,
       13.0371727
      ],
      [
       77.7219472,
       13.0377437
      ],
      [
       77.7216807,
       13.0378008
      ],
      [
       77.7218711,
       13.0380959
      ],
      [
       77.7228133,
       13.0381054
      ],
      [
       77.7238508,
       13.0380007
      ],
      [
       77.7241363,
       13.0379817
      ],
      [
       77.7244789,
       13.038172
      ],
      [
       77.7246693,
       13.0382482
      ],
      [
       77.7247454,
       13.0377247
      ],
      [
       77.7257404,
       13.0371752
      ],
      [
       77.7265589,
       13.0366041
      ],
      [
       77.72713,
       13.0362615
      ],
      [
       77.7273965,
       13.0361663
      ],
      [
       77.7275297,
       13.0362234
      ],
      [
       77.7277867,
       13.0360004
      ],
      [
       77.7280247,
       13.0358672
      ],
      [
       77.7283578,
       13.0356197
      ],
      [
       77.7284339,
       13.0353913
      ],
      [
       77.7288527,
       13.0352485
      ],
      [
       77.7289217,
       13.0352557
      ],
      [
       77.7289931,
       13.0352664
      ],
      [
       77.7290788,
       13.0352164
      ],
      [
       77.729168,
       13.0351771
      ],
      [
       77.7291858,
       13.0351986
      ],
      [
       77.7292644,
       13.035145
      ],
      [
       77.7293286,
       13.0350879
      ],
      [
       77.7294071,
       13.0351343
      ],
      [
       77.7295463,
       13.0351272
      ],
      [
       77.729632,
       13.03517
      ],
      [
       77.7296534,
       13.0352343
      ],
      [
       77.7296962,
       13.0352771
      ],
      [
       77.7297069,
       13.0353378
      ],
      [
       77.7297747,
       13.0352949
      ],
      [
       77.7298711,
       13.0351736
      ],
      [
       77.7299211,
       13.0350058
      ],
      [
       77.7300353,
       13.034756
      ],
      [
       77.729996,
       13.0346346
      ],
      [
       77.7300531,
       13.0345276
      ],
      [
       77.7300853,
       13.0344455
      ],
      [
       77.730096,
       13.034317
      ],
      [
       77.7301174,
       13.0340671
      ],
      [
       77.7300853,
       13.0338851
      ],
      [
       77.7300746,
       13.0338066
      ],
      [
       77.7299425,
       13.0338565
      ],
      [
       77.7298925,
       13.0338815
      ],
      [
       77.7297962,
       13.033803
      ],
      [
       77.7297319,
       13.0337459
      ],
      [
       77.7296355,
       13.0337673
      ],
      [
       77.7295892,
       13.0337423
      ],
      [
       77.7295999,
       13.0336531
      ],
      [
       77.7296498,
       13.0335032
      ],
      [
       77.7296998,
       13.0334175
      ],
      [
       77.7297123,
       13.0328697
      ],
      [
       77.729403,
       13.0322748
      ],
      [
       77.7292721,
       13.0317037
      ],
      [
       77.7293435,
       13.0314182
      ],
      [
       77.7295695,
       13.0310375
      ],
      [
       77.7297718,
       13.0306449
      ],
      [
       77.7297123,
       13.0300976
      ],
      [
       77.7301168,
       13.0297526
      ],
      [
       77.7302239,
       13.02936
      ],
      [
       77.7303666,
       13.0290863
      ],
      [
       77.7304499,
       13.0288365
      ],
      [
       77.7301287,
       13.0282178
      ],
      [
       77.730093,
       13.0277062
      ],
      [
       77.7300454,
       13.0270876
      ],
      [
       77.7300573,
       13.0268853
      ],
      [
       77.7302834,
       13.0269448
      ],
      [
       77.7302834,
       13.0263975
      ],
      [
       77.7305281,
       13.0258208
      ],
      [
       77.7308993,
       13.025364
      ],
      [
       77.731242,
       13.0249214
      ],
      [
       77.7317131,
       13.0247786
      ],
      [
       77.7320986,
       13.0246787
      ],
      [
       77.7323984,
       13.0242646
      ],
      [
       77.7327553,
       13.0240648
      ],
      [
       77.7330551,
       13.0239791
      ],
      [
       77.7333835,
       13.0238506
      ],
      [
       77.7340973,
       13.0236079
      ],
      [
       77.7345685,
       13.023408
      ],
      [
       77.7350539,
       13.0231796
      ],
      [
       77.7351538,
       13.0230083
      ],
      [
       77.7341973,
       13.0196104
      ],
      [
       77.7332978,
       13.0172262
      ],
      [
       77.7327268,
       13.0176117
      ],
      [
       77.7315132,
       13.017783
      ],
      [
       77.7308422,
       13.0182256
      ],
      [
       77.7303854,
       13.0188109
      ],
      [
       77.7302997,
       13.0192249
      ],
      [
       77.7300856,
       13.0194391
      ],
      [
       77.7298,
       13.0197817
      ],
      [
       77.7296287,
       13.02031
      ],
      [
       77.7287293,
       13.0207668
      ],
      [
       77.7280012,
       13.0208525
      ],
      [
       77.7265307,
       13.0208668
      ],
      [
       77.7262308,
       13.0207097
      ],
      [
       77.7257454,
       13.0206526
      ],
      [
       77.7256169,
       13.0209667
      ],
      [
       77.72526,
       13.0212094
      ],
      [
       77.7248174,
       13.0214236
      ],
      [
       77.7245747,
       13.0213094
      ],
      [
       77.724075,
       13.0213807
      ],
      [
       77.7232184,
       13.0216234
      ],
      [
       77.722833,
       13.0217662
      ],
      [
       77.7219478,
       13.0215092
      ],
      [
       77.7209484,
       13.0212094
      ],
      [
       77.72072,
       13.021809
      ],
      [
       77.7205915,
       13.0225657
      ],
      [
       77.7208057,
       13.0234366
      ],
      [
       77.7211769,
       13.023765
      ],
      [
       77.7225189,
       13.0242075
      ],
      [
       77.7238466,
       13.0251212
      ],
      [
       77.7240465,
       13.0253497
      ],
      [
       77.7243606,
       13.0259636
      ],
      [
       77.7252743,
       13.0263062
      ],
      [
       77.7255884,
       13.0263491
      ],
      [
       77.7251886,
       13.0280194
      ],
      [
       77.7251458,
       13.0286048
      ],
      [
       77.725103,
       13.0291759
      ],
      [
       77.7250459,
       13.0304893
      ],
      [
       77.7252457,
       13.0316457
      ],
      [
       77.7250887,
       13.0326023
      ],
      [
       77.7250316,
       13.0332019
      ],
      [
       77.7246604,
       13.0336445
      ],
      [
       77.7245747,
       13.0337587
      ],
      [
       77.7244891,
       13.0348295
      ],
      [
       77.7243606,
       13.0356575
      ],
      [
       77.7241036,
       13.0359573
      ],
      [
       77.7239555,
       13.0358973
      ]
     ]
    ]
   }
  },
  {
   "type": "Feature",
   "properties": {
    "id": "jakkur",
    "name": "Jakkur Lake",
    "atree_id": 46,
    "atree_name": "Jakkuru lake",
    "atree_alt_name": null,
    "custodian": null,
    "atree_area_ac": 130.98,
    "note": "Control lake"
   },
   "geometry": {
    "type": "Polygon",
    "coordinates": [
     [
      [
       77.606892,
       13.0917405
      ],
      [
       77.6063394,
       13.0935859
      ],
      [
       77.6066649,
       13.0941143
      ],
      [
       77.6079669,
       13.09422
      ],
      [
       77.6082381,
       13.0934538
      ],
      [
       77.608462,
       13.092865
      ],
      [
       77.6086022,
       13.0929135
      ],
      [
       77.6087073,
       13.0926092
      ],
      [
       77.6093869,
       13.0915539
      ],
      [
       77.6095621,
       13.0912682
      ],
      [
       77.6097367,
       13.090917
      ],
      [
       77.6100876,
       13.0903893
      ],
      [
       77.610394,
       13.089862
      ],
      [
       77.6107018,
       13.0894657
      ],
      [
       77.6108113,
       13.0892899
      ],
      [
       77.6112739,
       13.0887828
      ],
      [
       77.6118936,
       13.0883834
      ],
      [
       77.6120961,
       13.0878368
      ],
      [
       77.61264,
       13.0873275
      ],
      [
       77.6127104,
       13.0869961
      ],
      [
       77.6129239,
       13.0859913
      ],
      [
       77.613102,
       13.0858385
      ],
      [
       77.6134725,
       13.0839995
      ],
      [
       77.6135116,
       13.0832925
      ],
      [
       77.6139096,
       13.0820805
      ],
      [
       77.6141094,
       13.08155
      ],
      [
       77.6145675,
       13.0811678
      ],
      [
       77.614686,
       13.0806234
      ],
      [
       77.6149171,
       13.0802331
      ],
      [
       77.614762,
       13.080134
      ],
      [
       77.6144793,
       13.0801117
      ],
      [
       77.6142627,
       13.0806277
      ],
      [
       77.6140541,
       13.081173
      ],
      [
       77.6136349,
       13.0813031
      ],
      [
       77.6134701,
       13.0815312
      ],
      [
       77.6129294,
       13.0816374
      ],
      [
       77.6124178,
       13.0818187
      ],
      [
       77.6121879,
       13.0819217
      ],
      [
       77.6120079,
       13.0818984
      ],
      [
       77.6119044,
       13.0818239
      ],
      [
       77.6117446,
       13.0812719
      ],
      [
       77.6115051,
       13.080469
      ],
      [
       77.6113164,
       13.0796152
      ],
      [
       77.6111576,
       13.0791638
      ],
      [
       77.610668,
       13.0789926
      ],
      [
       77.6103291,
       13.0794662
      ],
      [
       77.6101525,
       13.0808343
      ],
      [
       77.6101897,
       13.0810402
      ],
      [
       77.6101504,
       13.0815429
      ],
      [
       77.6097577,
       13.0827517
      ],
      [
       77.6092591,
       13.0848512
      ],
      [
       77.6091591,
       13.0852722
      ],
      [
       77.6090061,
       13.0859165
      ],
      [
       77.6088018,
       13.0867766
      ],
      [
       77.6087603,
       13.087061
      ],
      [
       77.6079542,
       13.0894642
      ],
      [
       77.6074807,
       13.0903938
      ],
      [
       77.607373,
       13.0907443
      ],
      [
       77.6068482,
       13.0916888
      ],
      [
       77.606892,
       13.0917405
      ]
     ]
    ]
   }
  },
  {
   "type": "Feature",
   "properties": {
    "id": "bellandur",
    "name": "Bellandur Lake",
    "city": "Bengaluru",
    "state": "Karnataka",
    "source": "OpenStreetMap",
    "osm_id": "osm-r19751547",
    "note": "Survey dispute: 16 vs 36 acres encroached"
   },
   "geometry": {
    "type": "MultiPolygon",
    "coordinates": [
     [
      [
       [
        77.6475906,
        12.9315831
       ],
       [
        77.6478374,
        12.9305923
       ],
       [
        77.6479205,
        12.9294603
       ],
       [
        77.6478937,
        12.929131
       ],
       [
        77.6477435,
        12.9283937
       ],
       [
        77.647647,
        12.9283435
       ],
       [
        77.6468912,
        12.92866
       ],
       [
        77.6465525,
        12.9286326
       ],
       [
        77.645428,
        12.9293541
       ],
       [
        77.6453046,
        12.9293911
       ],
       [
        77.6451937,
        12.9293289
       ],
       [
        77.6447074,
        12.9287621
       ],
       [
        77.6445832,
        12.9287131
       ],
       [
        77.6444697,
        12.9286958
       ],
       [
        77.6440463,
        12.9287838
       ],
       [
        77.643531,
        12.9287691
       ],
       [
        77.6433063,
        12.9288504
       ],
       [
        77.6432587,
        12.9289217
       ],
       [
        77.6430676,
        12.9294073
       ],
       [
        77.6438007,
        12.9305479
       ],
       [
        77.6439884,
        12.9307831
       ],
       [
        77.6442057,
        12.9309635
       ],
       [
        77.6445007,
        12.9311282
       ],
       [
        77.6462656,
        12.9316746
       ],
       [
        77.6473,
        12.9321627
       ],
       [
        77.647368,
        12.9321373
       ],
       [
        77.6475906,
        12.9315831
       ]
      ]
     ],
     [
      [
       [
        77.6485777,
        12.9327438
       ],
       [
        77.6507637,
        12.9331751
       ],
       [
        77.6515528,
        12.9334265
       ],
       [
        77.6520431,
        12.9335155
       ],
       [
        77.6525491,
        12.9334921
       ],
       [
        77.6529963,
        12.9335654
       ],
       [
        77.6534789,
        12.9338618
       ],
       [
        77.6535347,
        12.933838
       ],
       [
        77.6534511,
        12.9336914
       ],
       [
        77.6533222,
        12.9335658
       ],
       [
        77.6531575,
        12.9334657
       ],
       [
        77.6529784,
        12.933233
       ],
       [
        77.6530357,
        12.9330515
       ],
       [
        77.6533866,
        12.9326118
       ],
       [
        77.653401,
        12.9325141
       ],
       [
        77.6531312,
        12.9323186
       ],
       [
        77.6531216,
        12.9322255
       ],
       [
        77.6531527,
        12.932072
       ],
       [
        77.6535156,
        12.9313553
       ],
       [
        77.653506,
        12.9312413
       ],
       [
        77.6526895,
        12.9310179
       ],
       [
        77.6526967,
        12.9307736
       ],
       [
        77.6527755,
        12.9307154
       ],
       [
        77.6534081,
        12.9309272
       ],
       [
        77.6536325,
        12.9310319
       ],
       [
        77.6537137,
        12.9310133
       ],
       [
        77.653962,
        12.9302291
       ],
       [
        77.6539787,
        12.9299918
       ],
       [
        77.6540933,
        12.9297335
       ],
       [
        77.6540742,
        12.9296172
       ],
       [
        77.6539501,
        12.9295328
       ],
       [
        77.6534889,
        12.9295296
       ],
       [
        77.6529487,
        12.92971
       ],
       [
        77.6520238,
        12.9294638
       ],
       [
        77.6516322,
        12.9292526
       ],
       [
        77.6514875,
        12.9290813
       ],
       [
        77.6513484,
        12.9288473
       ],
       [
        77.6513578,
        12.9285074
       ],
       [
        77.6513215,
        12.9283819
       ],
       [
        77.6509685,
        12.927995
       ],
       [
        77.6507728,
        12.9278665
       ],
       [
        77.6504071,
        12.927866
       ],
       [
        77.6496973,
        12.9279437
       ],
       [
        77.6487667,
        12.9278714
       ],
       [
        77.6482588,
        12.9279607
       ],
       [
        77.6478339,
        12.9282494
       ],
       [
        77.6478186,
        12.9283362
       ],
       [
        77.6480171,
        12.9294525
       ],
       [
        77.6479903,
        12.9299936
       ],
       [
        77.6479286,
        12.9306132
       ],
       [
        77.6477033,
        12.9315752
       ],
       [
        77.6474673,
        12.9321608
       ],
       [
        77.647465,
        12.9322357
       ],
       [
        77.6485777,
        12.9327438
       ]
      ]
     ],
     [
      [
       [
        77.6565452,
        12.9355587
       ],
       [
        77.6574363,
        12.9360669
       ],
       [
        77.6579751,
        12.9364128
       ],
       [
        77.6580854,
        12.9359901
       ],
       [
        77.6580794,
        12.9354708
       ],
       [
        77.6582345,
        12.9349031
       ],
       [
        77.6587017,
        12.9342888
       ],
       [
        77.6587653,
        12.9339963
       ],
       [
        77.6587395,
        12.9337889
       ],
       [
        77.6587752,
        12.9336203
       ],
       [
        77.6591947,
        12.9328084
       ],
       [
        77.6593339,
        12.9326282
       ],
       [
        77.6595427,
        12.9325003
       ],
       [
        77.6597474,
        12.9324267
       ],
       [
        77.6599622,
        12.9321225
       ],
       [
        77.6602186,
        12.9314191
       ],
       [
        77.6604274,
        12.9310955
       ],
       [
        77.660501,
        12.9306789
       ],
       [
        77.660495,
        12.9304037
       ],
       [
        77.6606072,
        12.9301456
       ],
       [
        77.6601339,
        12.9298447
       ],
       [
        77.6590176,
        12.9296384
       ],
       [
        77.6583242,
        12.9296951
       ],
       [
        77.6577938,
        12.9295278
       ],
       [
        77.6569134,
        12.9294725
       ],
       [
        77.6560515,
        12.9294994
       ],
       [
        77.6556446,
        12.929261
       ],
       [
        77.6550529,
        12.9291078
       ],
       [
        77.6549344,
        12.9291656
       ],
       [
        77.6545674,
        12.9294476
       ],
       [
        77.6541578,
        12.9295629
       ],
       [
        77.6541618,
        12.9298264
       ],
       [
        77.6540644,
        12.9300163
       ],
       [
        77.6539968,
        12.9304678
       ],
       [
        77.6538556,
        12.9308825
       ],
       [
        77.6537324,
        12.931208
       ],
       [
        77.6535157,
        12.9315549
       ],
       [
        77.6534182,
        12.9318184
       ],
       [
        77.6532731,
        12.9320257
       ],
       [
        77.6532254,
        12.9322176
       ],
       [
        77.6532691,
        12.9323183
       ],
       [
        77.6533844,
        12.9323629
       ],
       [
        77.6534839,
        12.9324462
       ],
       [
        77.6535017,
        12.9325392
       ],
       [
        77.653456,
        12.9326787
       ],
       [
        77.653122,
        12.9330701
       ],
       [
        77.6530763,
        12.9331845
       ],
       [
        77.6530982,
        12.9332814
       ],
       [
        77.6532552,
        12.9334654
       ],
       [
        77.6534858,
        12.9335953
       ],
       [
        77.653635,
        12.9337503
       ],
       [
        77.6536797,
        12.9339644
       ],
       [
        77.6547497,
        12.9346521
       ],
       [
        77.6565452,
        12.9355587
       ]
      ]
     ],
     [
      [
       [
        77.6598081,
        12.9373238
       ],
       [
        77.6613235,
        12.9381916
       ],
       [
        77.6618982,
        12.938791
       ],
       [
        77.6619888,
        12.9393656
       ],
       [
        77.6619008,
        12.9396159
       ],
       [
        77.661152,
        12.9408842
       ],
       [
        77.6609788,
        12.9413149
       ],
       [
        77.6606877,
        12.9418263
       ],
       [
        77.6606607,
        12.9422019
       ],
       [
        77.6605995,
        12.94247
       ],
       [
        77.6601595,
        12.942748
       ],
       [
        77.6601246,
        12.9428212
       ],
       [
        77.6600629,
        12.9434015
       ],
       [
        77.6599476,
        12.9437413
       ],
       [
        77.6599395,
        12.9439661
       ],
       [
        77.6600656,
        12.9441674
       ],
       [
        77.6608273,
        12.9445674
       ],
       [
        77.6610258,
        12.9445961
       ],
       [
        77.6614925,
        12.9445439
       ],
       [
        77.6618868,
        12.9443922
       ],
       [
        77.6621336,
        12.943446
       ],
       [
        77.6621436,
        12.9430944
       ],
       [
        77.6622771,
        12.9429216
       ],
       [
        77.6626995,
        12.942829
       ],
       [
        77.6637214,
        12.9427062
       ],
       [
        77.6643571,
        12.9424474
       ],
       [
        77.6648533,
        12.9423062
       ],
       [
        77.6654997,
        12.9418305
       ],
       [
        77.6655292,
        12.9415978
       ],
       [
        77.6656178,
        12.9413834
       ],
       [
        77.6657465,
        12.941271
       ],
       [
        77.6660094,
        12.9412449
       ],
       [
        77.6666236,
        12.9410384
       ],
       [
        77.6680155,
        12.9401129
       ],
       [
        77.6679499,
        12.939831
       ],
       [
        77.6670225,
        12.9388909
       ],
       [
        77.666895,
        12.9386394
       ],
       [
        77.6668606,
        12.9384508
       ],
       [
        77.6667688,
        12.9382524
       ],
       [
        77.6668075,
        12.9373961
       ],
       [
        77.6667903,
        12.9371488
       ],
       [
        77.6665036,
        12.9361709
       ],
       [
        77.6665137,
        12.9356666
       ],
       [
        77.6666412,
        12.9352363
       ],
       [
        77.6667803,
        12.9345127
       ],
       [
        77.6668964,
        12.9335166
       ],
       [
        77.6669064,
        12.9329005
       ],
       [
        77.6669838,
        12.9322411
       ],
       [
        77.6669367,
        12.9314523
       ],
       [
        77.666852,
        12.9312469
       ],
       [
        77.6668293,
        12.9311038
       ],
       [
        77.6667629,
        12.9310008
       ],
       [
        77.6659693,
        12.9310374
       ],
       [
        77.6658993,
        12.9310076
       ],
       [
        77.6653074,
        12.9281455
       ],
       [
        77.6639338,
        12.9281201
       ],
       [
        77.6635853,
        12.9285144
       ],
       [
        77.6629189,
        12.9290026
       ],
       [
        77.6623709,
        12.9292998
       ],
       [
        77.6614818,
        12.9296187
       ],
       [
        77.6612276,
        12.9297793
       ],
       [
        77.6607364,
        12.9301731
       ],
       [
        77.6605984,
        12.9304095
       ],
       [
        77.6605049,
        12.9311517
       ],
       [
        77.660334,
        12.9314307
       ],
       [
        77.6601013,
        12.9320547
       ],
       [
        77.6599323,
        12.9323841
       ],
       [
        77.6597892,
        12.9325275
       ],
       [
        77.6593975,
        12.9326902
       ],
       [
        77.6590794,
        12.9331495
       ],
       [
        77.6588747,
        12.9335855
       ],
       [
        77.6588289,
        12.9337657
       ],
       [
        77.6588508,
        12.9339963
       ],
       [
        77.6588051,
        12.9342482
       ],
       [
        77.6587454,
        12.934378
       ],
       [
        77.658306,
        12.9349418
       ],
       [
        77.658143,
        12.9355406
       ],
       [
        77.6581728,
        12.9358002
       ],
       [
        77.6581132,
        12.9362246
       ],
       [
        77.6580432,
        12.9364006
       ],
       [
        77.6589149,
        12.9369081
       ],
       [
        77.6598081,
        12.9373238
       ]
      ]
     ],
     [
      [
       [
        77.6669996,
        12.9314364
       ],
       [
        77.6670541,
        12.9320847
       ],
       [
        77.6669681,
        12.9328921
       ],
       [
        77.6669365,
        12.9336423
       ],
       [
        77.6667158,
        12.9351888
       ],
       [
        77.6667115,
        12.9353048
       ],
       [
        77.666776,
        12.9353984
       ],
       [
        77.6666699,
        12.9361388
       ],
       [
        77.6668491,
        12.9370566
       ],
       [
        77.6669064,
        12.9371921
       ],
       [
        77.6669537,
        12.9376461
       ],
       [
        77.6669007,
        12.937797
       ],
       [
        77.667001,
        12.9381547
       ],
       [
        77.6670053,
        12.9384424
       ],
       [
        77.6670627,
        12.938726
       ],
       [
        77.668046,
        12.9398087
       ],
       [
        77.6683285,
        12.9399021
       ],
       [
        77.6690966,
        12.939402
       ],
       [
        77.670352,
        12.9397742
       ],
       [
        77.6707274,
        12.9399562
       ],
       [
        77.6714049,
        12.9407163
       ],
       [
        77.672217,
        12.9412781
       ],
       [
        77.6731674,
        12.9421016
       ],
       [
        77.6740801,
        12.9425493
       ],
       [
        77.6742572,
        12.9425493
       ],
       [
        77.6743644,
        12.9424761
       ],
       [
        77.6747423,
        12.941956
       ],
       [
        77.6748359,
        12.9416211
       ],
       [
        77.6751021,
        12.9413364
       ],
       [
        77.6759738,
        12.9409861
       ],
       [
        77.6770359,
        12.940973
       ],
       [
        77.6775348,
        12.9410384
       ],
       [
        77.678321,
        12.9417376
       ],
       [
        77.6788974,
        12.9423436
       ],
       [
        77.6794124,
        12.943046
       ],
       [
        77.6795009,
        12.9432133
       ],
       [
        77.6797047,
        12.9432551
       ],
       [
        77.6799066,
        12.9431825
       ],
       [
        77.6797723,
        12.942843
       ],
       [
        77.6794569,
        12.9425232
       ],
       [
        77.6793776,
        12.9420449
       ],
       [
        77.6786556,
        12.9407468
       ],
       [
        77.6785396,
        12.9402468
       ],
       [
        77.6783699,
        12.9399536
       ],
       [
        77.6780337,
        12.9392237
       ],
       [
        77.6777362,
        12.9389841
       ],
       [
        77.6775205,
        12.9384545
       ],
       [
        77.6774078,
        12.9382322
       ],
       [
        77.6772901,
        12.938091
       ],
       [
        77.6771695,
        12.937671
       ],
       [
        77.6771582,
        12.9370968
       ],
       [
        77.6770116,
        12.936521
       ],
       [
        77.6769249,
        12.9363561
       ],
       [
        77.6765711,
        12.9358855
       ],
       [
        77.6765157,
        12.9356929
       ],
       [
        77.676494,
        12.9352839
       ],
       [
        77.676717,
        12.934501
       ],
       [
        77.6769038,
        12.9332424
       ],
       [
        77.6768952,
        12.9330953
       ],
       [
        77.6767356,
        12.9327422
       ],
       [
        77.6767442,
        12.9326119
       ],
       [
        77.6768219,
        12.9324942
       ],
       [
        77.6768262,
        12.9323849
       ],
       [
        77.6767183,
        12.9321033
       ],
       [
        77.6767356,
        12.9319604
       ],
       [
        77.6769469,
        12.9315653
       ],
       [
        77.6771237,
        12.9313845
       ],
       [
        77.6768995,
        12.9310861
       ],
       [
        77.676787,
        12.9312317
       ],
       [
        77.676669,
        12.931848
       ],
       [
        77.6765976,
        12.9318785
       ],
       [
        77.676426,
        12.9320786
       ],
       [
        77.6757074,
        12.9322023
       ],
       [
        77.6754,
        12.9321091
       ],
       [
        77.674466,
        12.9315595
       ],
       [
        77.6740711,
        12.9314035
       ],
       [
        77.6732643,
        12.9312422
       ],
       [
        77.6729762,
        12.9309627
       ],
       [
        77.6728457,
        12.9309484
       ],
       [
        77.6719274,
        12.9310054
       ],
       [
        77.6701429,
        12.9310546
       ],
       [
        77.6678791,
        12.9310436
       ],
       [
        77.6669636,
        12.9309991
       ],
       [
        77.6668964,
        12.9311347
       ],
       [
        77.6669996,
        12.9314364
       ]
      ]
     ]
    ]
   }
  },
  {
   "type": "Feature",
   "properties": {
    "id": "varthur",
    "name": "Varthur Lake",
    "city": "Bengaluru",
    "state": "Karnataka",
    "source": "OpenStreetMap",
    "osm_id": "osm-r19306126",
    "note": "Downstream of Bellandur"
   },
   "geometry": {
    "type": "MultiPolygon",
    "coordinates": [
     [
      [
       [
        77.7244729,
        12.9434726
       ],
       [
        77.7235151,
        12.9434632
       ],
       [
        77.7227221,
        12.94339
       ],
       [
        77.7225016,
        12.9434534
       ],
       [
        77.722421,
        12.9444117
       ],
       [
        77.7230186,
        12.9444507
       ],
       [
        77.7231702,
        12.9444861
       ],
       [
        77.723286,
        12.9445781
       ],
       [
        77.7235522,
        12.9449428
       ],
       [
        77.7238045,
        12.9456016
       ],
       [
        77.7241673,
        12.9458741
       ],
       [
        77.7243101,
        12.9458592
       ],
       [
        77.7247941,
        12.94546
       ],
       [
        77.7251531,
        12.9449832
       ],
       [
        77.7253193,
        12.9444136
       ],
       [
        77.7253165,
        12.943966
       ],
       [
        77.7252121,
        12.9435084
       ],
       [
        77.7251834,
        12.9434765
       ],
       [
        77.7248195,
        12.9435035
       ],
       [
        77.7244729,
        12.9434726
       ]
      ]
     ],
     [
      [
       [
        77.7283058,
        12.943684
       ],
       [
        77.7282888,
        12.9436266
       ],
       [
        77.7277092,
        12.943552
       ],
       [
        77.7270903,
        12.9434016
       ],
       [
        77.727038,
        12.9434118
       ],
       [
        77.7270463,
        12.9449103
       ],
       [
        77.7265784,
        12.9460266
       ],
       [
        77.7265433,
        12.9460142
       ],
       [
        77.7265568,
        12.9458556
       ],
       [
        77.726985,
        12.9448737
       ],
       [
        77.7269067,
        12.9433397
       ],
       [
        77.7267471,
        12.9432893
       ],
       [
        77.7261088,
        12.9432491
       ],
       [
        77.7258474,
        12.9432947
       ],
       [
        77.7258286,
        12.9433284
       ],
       [
        77.7259824,
        12.9446392
       ],
       [
        77.7254898,
        12.9456555
       ],
       [
        77.7254155,
        12.9456099
       ],
       [
        77.72589,
        12.9445877
       ],
       [
        77.7257011,
        12.9433555
       ],
       [
        77.7256662,
        12.9433399
       ],
       [
        77.7252836,
        12.943457
       ],
       [
        77.7253932,
        12.9439295
       ],
       [
        77.7253918,
        12.9444062
       ],
       [
        77.7252435,
        12.9449653
       ],
       [
        77.7250264,
        12.9453029
       ],
       [
        77.7247933,
        12.9455703
       ],
       [
        77.7243778,
        12.94588
       ],
       [
        77.7243478,
        12.9459517
       ],
       [
        77.7243823,
        12.9460248
       ],
       [
        77.7250314,
        12.9463083
       ],
       [
        77.7253004,
        12.9463385
       ],
       [
        77.7253946,
        12.9463295
       ],
       [
        77.7254058,
        12.9462361
       ],
       [
        77.7253493,
        12.9459663
       ],
       [
        77.7253698,
        12.945949
       ],
       [
        77.7254612,
        12.9461513
       ],
       [
        77.7255521,
        12.9462537
       ],
       [
        77.7262932,
        12.9451742
       ],
       [
        77.7264258,
        12.9439081
       ],
       [
        77.7264682,
        12.9438873
       ],
       [
        77.7265182,
        12.9439146
       ],
       [
        77.7263737,
        12.9452554
       ],
       [
        77.7256,
        12.9463449
       ],
       [
        77.7258038,
        12.9464652
       ],
       [
        77.7264749,
        12.9467346
       ],
       [
        77.7265514,
        12.946754
       ],
       [
        77.726631,
        12.9467248
       ],
       [
        77.7273225,
        12.9455777
       ],
       [
        77.727564,
        12.944242
       ],
       [
        77.7276333,
        12.9442321
       ],
       [
        77.7276521,
        12.944276
       ],
       [
        77.7274438,
        12.9455793
       ],
       [
        77.7267054,
        12.9467961
       ],
       [
        77.7267301,
        12.9468418
       ],
       [
        77.7269574,
        12.9469262
       ],
       [
        77.7273575,
        12.9469808
       ],
       [
        77.7277483,
        12.947121
       ],
       [
        77.7277993,
        12.9470236
       ],
       [
        77.7283058,
        12.943684
       ]
      ]
     ],
     [
      [
       [
        77.7298856,
        12.9476775
       ],
       [
        77.7304582,
        12.9431188
       ],
       [
        77.7303839,
        12.9430196
       ],
       [
        77.7297416,
        12.9432668
       ],
       [
        77.729199,
        12.9476187
       ],
       [
        77.7292305,
        12.9476634
       ],
       [
        77.7294625,
        12.9473391
       ],
       [
        77.7294943,
        12.9473797
       ],
       [
        77.7293507,
        12.947597
       ],
       [
        77.7293324,
        12.9476797
       ],
       [
        77.7298062,
        12.9477766
       ],
       [
        77.7298856,
        12.9476775
       ]
      ]
     ],
     [
      [
       [
        77.729638,
        12.9433024
       ],
       [
        77.7286941,
        12.9436208
       ],
       [
        77.728406,
        12.9436455
       ],
       [
        77.7283752,
        12.943709
       ],
       [
        77.7278654,
        12.9470515
       ],
       [
        77.7278771,
        12.947165
       ],
       [
        77.7283372,
        12.9475294
       ],
       [
        77.7285256,
        12.9476191
       ],
       [
        77.7291093,
        12.9477001
       ],
       [
        77.7291455,
        12.9475808
       ],
       [
        77.729638,
        12.9433024
       ]
      ]
     ],
     [
      [
       [
        77.7305238,
        12.9432407
       ],
       [
        77.7299128,
        12.9478067
       ],
       [
        77.7300456,
        12.9479056
       ],
       [
        77.7307913,
        12.9480998
       ],
       [
        77.731101,
        12.9481417
       ],
       [
        77.731258,
        12.9480314
       ],
       [
        77.7314097,
        12.9479918
       ],
       [
        77.7320871,
        12.9480637
       ],
       [
        77.7323681,
        12.9481495
       ],
       [
        77.7328998,
        12.9484222
       ],
       [
        77.7330402,
        12.9485777
       ],
       [
        77.7333322,
        12.9492014
       ],
       [
        77.733444,
        12.9492794
       ],
       [
        77.7342658,
        12.949511
       ],
       [
        77.734918,
        12.949487
       ],
       [
        77.7350789,
        12.9495549
       ],
       [
        77.7357256,
        12.9501552
       ],
       [
        77.7364707,
        12.9505635
       ],
       [
        77.7367223,
        12.9507375
       ],
       [
        77.7374627,
        12.9510573
       ],
       [
        77.7375548,
        12.9510081
       ],
       [
        77.7376133,
        12.9510212
       ],
       [
        77.7376523,
        12.9510632
       ],
       [
        77.7376408,
        12.9514542
       ],
       [
        77.737722,
        12.9516193
       ],
       [
        77.7382472,
        12.9520437
       ],
       [
        77.7383205,
        12.9520709
       ],
       [
        77.7383765,
        12.9520008
       ],
       [
        77.7384514,
        12.9519957
       ],
       [
        77.7385034,
        12.9520366
       ],
       [
        77.7385164,
        12.952121
       ],
       [
        77.7385857,
        12.9521397
       ],
       [
        77.7389729,
        12.9521085
       ],
       [
        77.7392597,
        12.9520378
       ],
       [
        77.7395546,
        12.9520899
       ],
       [
        77.7396108,
        12.9521781
       ],
       [
        77.739579,
        12.9522615
       ],
       [
        77.7398157,
        12.952493
       ],
       [
        77.7399558,
        12.9525792
       ],
       [
        77.7405568,
        12.9527221
       ],
       [
        77.7409047,
        12.9528785
       ],
       [
        77.7412314,
        12.9529578
       ],
       [
        77.7420418,
        12.9532428
       ],
       [
        77.7424193,
        12.9534148
       ],
       [
        77.7426225,
        12.9534466
       ],
       [
        77.7431602,
        12.9537218
       ],
       [
        77.7434738,
        12.9539837
       ],
       [
        77.7436427,
        12.9544275
       ],
       [
        77.7438406,
        12.9548161
       ],
       [
        77.7439463,
        12.9551697
       ],
       [
        77.7441396,
        12.955507
       ],
       [
        77.7442361,
        12.9555368
       ],
       [
        77.7441972,
        12.9549873
       ],
       [
        77.7440077,
        12.9543743
       ],
       [
        77.7441631,
        12.9541933
       ],
       [
        77.7441742,
        12.9539516
       ],
       [
        77.743949,
        12.9534498
       ],
       [
        77.7439463,
        12.9532642
       ],
       [
        77.7442995,
        12.952221
       ],
       [
        77.7445316,
        12.9517591
       ],
       [
        77.7447884,
        12.9508241
       ],
       [
        77.7447649,
        12.9506795
       ],
       [
        77.7448536,
        12.9503236
       ],
       [
        77.7450997,
        12.9497275
       ],
       [
        77.7452056,
        12.9491804
       ],
       [
        77.7453331,
        12.9489984
       ],
       [
        77.7455261,
        12.9488812
       ],
       [
        77.7455985,
        12.948755
       ],
       [
        77.746199,
        12.9471657
       ],
       [
        77.7462519,
        12.9466268
       ],
       [
        77.746371,
        12.9464626
       ],
       [
        77.7465857,
        12.9463305
       ],
       [
        77.7467093,
        12.9461197
       ],
       [
        77.7467437,
        12.9459653
       ],
       [
        77.7468639,
        12.9457687
       ],
       [
        77.7468136,
        12.945714
       ],
       [
        77.7465386,
        12.9455927
       ],
       [
        77.7461973,
        12.9456174
       ],
       [
        77.7456162,
        12.9458991
       ],
       [
        77.7444988,
        12.9458979
       ],
       [
        77.7440107,
        12.945715
       ],
       [
        77.7425436,
        12.9456653
       ],
       [
        77.742388,
        12.9457594
       ],
       [
        77.7422967,
        12.9461228
       ],
       [
        77.7421305,
        12.946277
       ],
       [
        77.7411944,
        12.945545
       ],
       [
        77.7409556,
        12.945315
       ],
       [
        77.7403628,
        12.944936
       ],
       [
        77.7401376,
        12.9447399
       ],
       [
        77.739577,
        12.944549
       ],
       [
        77.7388501,
        12.944523
       ],
       [
        77.738201,
        12.9442537
       ],
       [
        77.7379918,
        12.9442119
       ],
       [
        77.7375197,
        12.9442014
       ],
       [
        77.7372783,
        12.9442276
       ],
       [
        77.7367902,
        12.9444158
       ],
       [
        77.7364683,
        12.9442955
       ],
       [
        77.7359909,
        12.9439139
       ],
       [
        77.735846,
        12.9438459
       ],
       [
        77.7354062,
        12.9437413
       ],
       [
        77.7351916,
        12.943595
       ],
       [
        77.7344459,
        12.9427741
       ],
       [
        77.7340114,
        12.9420265
       ],
       [
        77.7339631,
        12.9418069
       ],
       [
        77.7339432,
        12.9412009
       ],
       [
        77.7325738,
        12.9412549
       ],
       [
        77.7324344,
        12.9412903
       ],
       [
        77.7324017,
        12.9413521
       ],
       [
        77.7323726,
        12.9418662
       ],
       [
        77.7322902,
        12.9420182
       ],
       [
        77.731652,
        12.9426265
       ],
       [
        77.7305504,
        12.9429484
       ],
       [
        77.7305095,
        12.9430246
       ],
       [
        77.7305238,
        12.9432407
       ]
      ]
     ]
    ]
   }
  },
  {
   "type": "Feature",
   "properties": {
    "id": "kaikondrahalli",
    "name": "Kaikondrahalli Lake",
    "city": "Bengaluru",
    "state": "Karnataka",
    "source": "OpenStreetMap",
    "osm_id": "osm-r6820030",
    "note": "Restored lake; candidate quiet control"
   },
   "geometry": {
    "type": "Polygon",
    "coordinates": [
     [
      [
       77.6734973,
       12.9158468
      ],
      [
       77.673659,
       12.915879
      ],
      [
       77.6738192,
       12.9155637
      ],
      [
       77.6739033,
       12.9155892
      ],
      [
       77.6742395,
       12.9152932
      ],
      [
       77.6746173,
       12.9150325
      ],
      [
       77.6748485,
       12.914943
      ],
      [
       77.6756161,
       12.9144301
      ],
      [
       77.6758939,
       12.9143088
      ],
      [
       77.6759038,
       12.9142083
      ],
      [
       77.6758158,
       12.914035
      ],
      [
       77.6753485,
       12.9135335
      ],
      [
       77.6745183,
       12.9131154
      ],
      [
       77.6739354,
       12.9123164
      ],
      [
       77.6734041,
       12.9118318
      ],
      [
       77.6721707,
       12.9109435
      ],
      [
       77.6718238,
       12.9106267
      ],
      [
       77.6716802,
       12.9105546
      ],
      [
       77.6711718,
       12.9105871
      ],
      [
       77.6704401,
       12.910522
      ],
      [
       77.6699551,
       12.9109657
      ],
      [
       77.6696258,
       12.9113367
      ],
      [
       77.6700132,
       12.911685
      ],
      [
       77.67024,
       12.9121246
      ],
      [
       77.6709803,
       12.9128767
      ],
      [
       77.6714902,
       12.9134499
      ],
      [
       77.6717028,
       12.9136443
      ],
      [
       77.6722337,
       12.9138775
      ],
      [
       77.6733439,
       12.9148729
      ],
      [
       77.6735422,
       12.9153502
      ],
      [
       77.6735036,
       12.9154156
      ],
      [
       77.6734973,
       12.9158468
      ]
     ],
     [
      [
       77.6732002,
       12.9131346
      ],
      [
       77.6733048,
       12.913268
      ],
      [
       77.673337,
       12.9132392
      ],
      [
       77.6736427,
       12.9136
      ],
      [
       77.6733584,
       12.9137934
      ],
      [
       77.6732511,
       12.913783
      ],
      [
       77.6732029,
       12.9134876
      ],
      [
       77.6730956,
       12.9132392
      ],
      [
       77.6732002,
       12.9131346
      ]
     ]
    ]
   }
  },
  {
   "type": "Feature",
   "properties": {
    "id": "durgam-cheruvu",
    "name": "Durgam Cheruvu",
    "city": "Hyderabad",
    "state": "Telangana",
    "source": "OpenStreetMap",
    "osm_id": "osm-w28131043",
    "note": "Second city"
   },
   "geometry": {
    "type": "Polygon",
    "coordinates": [
     [
      [
       78.3883521,
       17.4265219
      ],
      [
       78.3877351,
       17.4267765
      ],
      [
       78.3873285,
       17.427073
      ],
      [
       78.3861691,
       17.4280771
      ],
      [
       78.3860001,
       17.4281872
      ],
      [
       78.3859464,
       17.4283356
      ],
      [
       78.3860162,
       17.4286581
      ],
      [
       78.3861154,
       17.4287681
      ],
      [
       78.3862576,
       17.4287834
      ],
      [
       78.3868101,
       17.4286376
      ],
      [
       78.3869496,
       17.4286325
      ],
      [
       78.3871186,
       17.4287374
      ],
      [
       78.3872111,
       17.4287502
      ],
      [
       78.38725,
       17.4287924
      ],
      [
       78.3871588,
       17.4288756
      ],
      [
       78.3871374,
       17.4289549
      ],
      [
       78.3872004,
       17.429056
      ],
      [
       78.3873989,
       17.4291404
      ],
      [
       78.3874525,
       17.4292095
      ],
      [
       78.3876598,
       17.4299127
      ],
      [
       78.3879313,
       17.430434
      ],
      [
       78.3879662,
       17.4304673
      ],
      [
       78.388229,
       17.4303957
      ],
      [
       78.3883578,
       17.4304136
      ],
      [
       78.3884731,
       17.4304724
      ],
      [
       78.3886662,
       17.4307053
      ],
      [
       78.3889161,
       17.4311432
      ],
      [
       78.3892134,
       17.4314001
      ],
      [
       78.3892442,
       17.4315204
      ],
      [
       78.3892013,
       17.4317366
      ],
      [
       78.3891276,
       17.4319388
      ],
      [
       78.3890051,
       17.4320219
      ],
      [
       78.3890304,
       17.4321047
      ],
      [
       78.3889479,
       17.4324561
      ],
      [
       78.3887185,
       17.4328418
      ],
      [
       78.3887317,
       17.4328953
      ],
      [
       78.3888301,
       17.4329662
      ],
      [
       78.3890573,
       17.4330328
      ],
      [
       78.3890652,
       17.4331786
      ],
      [
       78.3891873,
       17.4333627
      ],
      [
       78.3891832,
       17.4334808
      ],
      [
       78.3892061,
       17.4334998
      ],
      [
       78.3891765,
       17.4335432
      ],
      [
       78.3890762,
       17.4335523
      ],
      [
       78.3890635,
       17.4335954
      ],
      [
       78.3890858,
       17.4336423
      ],
      [
       78.3891738,
       17.43364
      ],
      [
       78.3891811,
       17.4338133
      ],
      [
       78.3892398,
       17.4338371
      ],
      [
       78.3892329,
       17.4339139
      ],
      [
       78.3892722,
       17.4339643
      ],
      [
       78.3892559,
       17.4341409
      ],
      [
       78.3892796,
       17.4341729
      ],
      [
       78.3893563,
       17.4341592
      ],
      [
       78.389424,
       17.4341959
      ],
      [
       78.3894658,
       17.4342671
      ],
      [
       78.3895212,
       17.4348941
      ],
      [
       78.3894846,
       17.4350265
      ],
      [
       78.3894068,
       17.4350525
      ],
      [
       78.3893706,
       17.4351248
      ],
      [
       78.3892943,
       17.4350978
      ],
      [
       78.389112,
       17.4351688
      ],
      [
       78.3890017,
       17.4351294
      ],
      [
       78.3887947,
       17.4352613
      ],
      [
       78.3888133,
       17.4355583
      ],
      [
       78.3890223,
       17.4357295
      ],
      [
       78.3890919,
       17.435838
      ],
      [
       78.38911,
       17.4359516
      ],
      [
       78.3891981,
       17.4360442
      ],
      [
       78.3892501,
       17.4359948
      ],
      [
       78.3894038,
       17.4360284
      ],
      [
       78.390407,
       17.4358924
      ],
      [
       78.3906671,
       17.4358041
      ],
      [
       78.3915737,
       17.4359704
      ],
      [
       78.3916401,
       17.435895
      ],
      [
       78.3916133,
       17.4347549
      ],
      [
       78.3915838,
       17.4346833
      ],
      [
       78.3913162,
       17.4345451
      ],
      [
       78.3912794,
       17.4344907
      ],
      [
       78.3912277,
       17.4342297
      ],
      [
       78.3912519,
       17.433945
      ],
      [
       78.3913122,
       17.4338593
      ],
      [
       78.3915543,
       17.4338164
      ],
      [
       78.3918037,
       17.4336181
      ],
      [
       78.3917937,
       17.4334057
      ],
      [
       78.3916824,
       17.4332138
      ],
      [
       78.391677,
       17.4331127
      ],
      [
       78.3918205,
       17.432924
      ],
      [
       78.3918768,
       17.4327225
      ],
      [
       78.3918487,
       17.4327033
      ],
      [
       78.3917736,
       17.4327365
      ],
      [
       78.3917105,
       17.4327116
      ],
      [
       78.3915979,
       17.4324582
      ],
      [
       78.3914436,
       17.4323226
      ],
      [
       78.3912559,
       17.4322817
      ],
      [
       78.3908857,
       17.4323213
      ],
      [
       78.3907315,
       17.4322753
      ],
      [
       78.3906698,
       17.432219
      ],
      [
       78.3906604,
       17.4318441
      ],
      [
       78.3907127,
       17.4317161
      ],
      [
       78.390808,
       17.4316669
      ],
      [
       78.3908381,
       17.4315044
      ],
      [
       78.3908153,
       17.4314135
      ],
      [
       78.3906135,
       17.4310981
      ],
      [
       78.39058,
       17.4309663
      ],
      [
       78.3905438,
       17.4307616
      ],
      [
       78.3905572,
       17.4301321
      ],
      [
       78.3906215,
       17.4299299
      ],
      [
       78.3908951,
       17.4295435
      ],
      [
       78.3910748,
       17.4293388
      ],
      [
       78.3914624,
       17.429088
      ],
      [
       78.391563,
       17.4289779
      ],
      [
       78.3916368,
       17.4289357
      ],
      [
       78.3922986,
       17.4287946
      ],
      [
       78.3927378,
       17.4286555
      ],
      [
       78.3933775,
       17.4283766
      ],
      [
       78.3938643,
       17.4282652
      ],
      [
       78.3940333,
       17.4280784
      ],
      [
       78.3940467,
       17.4279697
      ],
      [
       78.3940038,
       17.4278084
      ],
      [
       78.3937034,
       17.4271239
      ],
      [
       78.393631,
       17.4270868
      ],
      [
       78.3934043,
       17.4270893
      ],
      [
       78.3932877,
       17.4271482
      ],
      [
       78.3928759,
       17.4272019
      ],
      [
       78.3923542,
       17.4271584
      ],
      [
       78.3920458,
       17.4269563
      ],
      [
       78.3919653,
       17.4266748
      ],
      [
       78.3918849,
       17.4266441
      ],
      [
       78.3916086,
       17.4267592
      ],
      [
       78.391335,
       17.426749
      ],
      [
       78.3912116,
       17.4266876
      ],
      [
       78.3909541,
       17.4266492
      ],
      [
       78.3908857,
       17.4267016
      ],
      [
       78.3908764,
       17.4267567
      ],
      [
       78.3909944,
       17.4268488
      ],
      [
       78.390993,
       17.4268808
      ],
      [
       78.3908509,
       17.426891
      ],
      [
       78.3908267,
       17.4269633
      ],
      [
       78.3908522,
       17.4271712
      ],
      [
       78.3908978,
       17.4272761
      ],
      [
       78.3910346,
       17.4273081
      ],
      [
       78.3910896,
       17.4273593
      ],
      [
       78.3911392,
       17.4274246
      ],
      [
       78.3911405,
       17.427518
      ],
      [
       78.3910775,
       17.4276843
      ],
      [
       78.390981,
       17.4277457
      ],
      [
       78.390808,
       17.4277112
      ],
      [
       78.3907329,
       17.4277688
      ],
      [
       78.391099,
       17.428081
      ],
      [
       78.39128,
       17.4280951
      ],
      [
       78.3913524,
       17.428145
      ],
      [
       78.39139,
       17.4282345
      ],
      [
       78.3913659,
       17.4282678
      ],
      [
       78.3910185,
       17.428383
      ],
      [
       78.3908978,
       17.4283561
      ],
      [
       78.3908026,
       17.4284456
      ],
      [
       78.3906658,
       17.4284316
      ],
      [
       78.3905853,
       17.4283945
      ],
      [
       78.3904687,
       17.4281616
      ],
      [
       78.3903822,
       17.4280949
      ],
      [
       78.3901575,
       17.4281194
      ],
      [
       78.3900824,
       17.4280618
      ],
      [
       78.3901267,
       17.4278878
      ],
      [
       78.3902554,
       17.4278891
      ],
      [
       78.3902145,
       17.4277841
      ],
      [
       78.3902353,
       17.4277521
      ],
      [
       78.3905008,
       17.4277944
      ],
      [
       78.3906028,
       17.4277784
      ],
      [
       78.3906738,
       17.4275909
      ],
      [
       78.3907999,
       17.4275551
      ],
      [
       78.3908334,
       17.4275167
      ],
      [
       78.3908321,
       17.427445
      ],
      [
       78.3907972,
       17.4272979
      ],
      [
       78.3904767,
       17.4271482
      ],
      [
       78.3903855,
       17.4270126
      ],
      [
       78.3901119,
       17.427019
      ],
      [
       78.390132,
       17.4271418
      ],
      [
       78.3899711,
       17.4270996
      ],
      [
       78.3899952,
       17.4270279
      ],
      [
       78.3900801,
       17.4270308
      ],
      [
       78.390002,
       17.4269243
      ],
      [
       78.389947,
       17.4267192
      ],
      [
       78.3900244,
       17.4266741
      ],
      [
       78.3903292,
       17.4267221
      ],
      [
       78.390358,
       17.4266716
      ],
      [
       78.3902467,
       17.426511
      ],
      [
       78.3902816,
       17.4263945
      ],
      [
       78.3902654,
       17.4263138
      ],
      [
       78.3899656,
       17.4260642
      ],
      [
       78.3888318,
       17.4262306
      ],
      [
       78.3883521,
       17.4265219
      ]
     ]
    ]
   }
  },
  {
   "type": "Feature",
   "properties": {
    "id": "ameenpur",
    "name": "Ameenpur Lake",
    "city": "Hyderabad",
    "state": "Telangana",
    "source": "OpenStreetMap",
    "osm_id": "osm-w115772000",
    "note": "Second city"
   },
   "geometry": {
    "type": "Polygon",
    "coordinates": [
     [
      [
       78.3329534,
       17.5259541
      ],
      [
       78.3331391,
       17.5258886
      ],
      [
       78.3337343,
       17.5258316
      ],
      [
       78.3338123,
       17.5260704
      ],
      [
       78.3343757,
       17.5260452
      ],
      [
       78.3344276,
       17.5264788
      ],
      [
       78.3353756,
       17.526594
      ],
      [
       78.3362985,
       17.5272335
      ],
      [
       78.3366951,
       17.5282168
      ],
      [
       78.3397991,
       17.5289025
      ],
      [
       78.3393002,
       17.5273746
      ],
      [
       78.3376267,
       17.5260765
      ],
      [
       78.337867,
       17.5246009
      ],
      [
       78.3385142,
       17.5246697
      ],
      [
       78.3385916,
       17.5239099
      ],
      [
       78.3391546,
       17.5234397
      ],
      [
       78.3392006,
       17.522829
      ],
      [
       78.3394667,
       17.5230017
      ],
      [
       78.3406043,
       17.5230458
      ],
      [
       78.3405971,
       17.5228358
      ],
      [
       78.3408916,
       17.522604
      ],
      [
       78.3409781,
       17.522472
      ],
      [
       78.3413554,
       17.5225037
      ],
      [
       78.3413587,
       17.5226659
      ],
      [
       78.3417133,
       17.5226796
      ],
      [
       78.3418096,
       17.5224737
      ],
      [
       78.3423665,
       17.5224613
      ],
      [
       78.3420257,
       17.5217776
      ],
      [
       78.342108,
       17.520556
      ],
      [
       78.3407421,
       17.5199654
      ],
      [
       78.3399332,
       17.5200518
      ],
      [
       78.3310893,
       17.5183145
      ],
      [
       78.3300612,
       17.5185633
      ],
      [
       78.3294296,
       17.5198175
      ],
      [
       78.328743,
       17.5198175
      ],
      [
       78.3282693,
       17.5198589
      ],
      [
       78.3279072,
       17.5202631
      ],
      [
       78.3274834,
       17.5209613
      ],
      [
       78.3262539,
       17.5221911
      ],
      [
       78.3251828,
       17.5229363
      ],
      [
       78.3246237,
       17.523471
      ],
      [
       78.3245132,
       17.5247741
      ],
      [
       78.3246698,
       17.5254809
      ],
      [
       78.3249164,
       17.5260856
      ],
      [
       78.3273398,
       17.525743
      ],
      [
       78.3289366,
       17.5267669
      ],
      [
       78.3294095,
       17.528326
      ],
      [
       78.3307956,
       17.5284611
      ],
      [
       78.3312447,
       17.527576
      ],
      [
       78.3307575,
       17.5262514
      ],
      [
       78.3328868,
       17.5257178
      ],
      [
       78.3329534,
       17.5259541
      ]
     ]
    ]
   }
  },
  {
   "type": "Feature",
   "properties": {
    "id": "chembarambakkam",
    "name": "Chembarambakkam Lake",
    "city": "Chennai",
    "state": "Tamil Nadu",
    "source": "OpenStreetMap",
    "osm_id": "osm-w25453624",
    "note": "Third city; flood reservoir"
   },
   "geometry": {
    "type": "Polygon",
    "coordinates": [
     [
      [
       80.0437316,
       12.9809941
      ],
      [
       80.0449127,
       12.9816567
      ],
      [
       80.0457274,
       12.983131
      ],
      [
       80.0472622,
       12.9830077
      ],
      [
       80.0489237,
       12.9829584
      ],
      [
       80.0493732,
       12.9828518
      ],
      [
       80.0502688,
       12.982964
      ],
      [
       80.0503659,
       12.9834611
      ],
      [
       80.0505376,
       12.9836878
      ],
      [
       80.0507517,
       12.983693
      ],
      [
       80.050961,
       12.9840771
      ],
      [
       80.050765,
       12.9845688
      ],
      [
       80.0508326,
       12.9851317
      ],
      [
       80.0509706,
       12.9855504
      ],
      [
       80.0512031,
       12.9857976
      ],
      [
       80.0517224,
       12.9861027
      ],
      [
       80.0520907,
       12.9868694
      ],
      [
       80.0519173,
       12.9869524
      ],
      [
       80.0522134,
       12.9886267
      ],
      [
       80.051903,
       12.9889953
      ],
      [
       80.0519377,
       12.9893086
      ],
      [
       80.0523317,
       12.9892488
      ],
      [
       80.0523267,
       12.9899317
      ],
      [
       80.0524547,
       12.9902398
      ],
      [
       80.0529088,
       12.9901896
      ],
      [
       80.0530998,
       12.9903568
      ],
      [
       80.0527958,
       12.9906054
      ],
      [
       80.0528634,
       12.9909201
      ],
      [
       80.0533574,
       12.9914217
      ],
      [
       80.0539631,
       12.9917175
      ],
      [
       80.0541981,
       12.9923365
      ],
      [
       80.0547178,
       12.9924084
      ],
      [
       80.0553032,
       12.992278
      ],
      [
       80.0557252,
       12.9928224
      ],
      [
       80.0563556,
       12.9931789
      ],
      [
       80.0567817,
       12.992726
      ],
      [
       80.0567283,
       12.9917672
      ],
      [
       80.0569198,
       12.9904848
      ],
      [
       80.0569672,
       12.9890477
      ],
      [
       80.0571958,
       12.9885478
      ],
      [
       80.0576195,
       12.9878292
      ],
      [
       80.058301,
       12.987158
      ],
      [
       80.0586913,
       12.986582
      ],
      [
       80.0590432,
       12.9858069
      ],
      [
       80.0599965,
       12.9853956
      ],
      [
       80.0614098,
       12.9851289
      ],
      [
       80.0628892,
       12.9854924
      ],
      [
       80.0638763,
       12.9875415
      ],
      [
       80.0640909,
       12.9894233
      ],
      [
       80.0646147,
       12.9920996
      ],
      [
       80.0647638,
       12.9948871
      ],
      [
       80.0656063,
       12.9954717
      ],
      [
       80.0665416,
       12.9964997
      ],
      [
       80.0669598,
       12.9974517
      ],
      [
       80.0692157,
       12.9970791
      ],
      [
       80.0700943,
       12.9967694
      ],
      [
       80.0716144,
       12.9968436
      ],
      [
       80.0732282,
       12.9979261
      ],
      [
       80.0773767,
       12.9977774
      ],
      [
       80.0789698,
       12.9980412
      ],
      [
       80.0793105,
       12.9982337
      ],
      [
       80.0798781,
       12.9987141
      ],
      [
       80.0802161,
       12.9993387
      ],
      [
       80.082046,
       13.0009154
      ],
      [
       80.082703,
       13.0021489
      ],
      [
       80.0829269,
       13.0027089
      ],
      [
       80.0826663,
       13.0037547
      ],
      [
       80.0789811,
       13.0150321
      ],
      [
       80.0721115,
       13.0312747
      ],
      [
       80.0708298,
       13.0349855
      ],
      [
       80.0696635,
       13.0365043
      ],
      [
       80.068721,
       13.0374545
      ],
      [
       80.0670746,
       13.0377855
      ],
      [
       80.0640663,
       13.0378465
      ],
      [
       80.0630094,
       13.0375082
      ],
      [
       80.0632138,
       13.0365758
      ],
      [
       80.0642795,
       13.036027
      ],
      [
       80.0634178,
       13.0353309
      ],
      [
       80.0628985,
       13.0341652
      ],
      [
       80.0627757,
       13.0328255
      ],
      [
       80.0624902,
       13.0311176
      ],
      [
       80.0627609,
       13.0295392
      ],
      [
       80.0632844,
       13.0282696
      ],
      [
       80.0634678,
       13.0275005
      ],
      [
       80.0627863,
       13.0258605
      ],
      [
       80.0620733,
       13.0252893
      ],
      [
       80.061263,
       13.0247088
      ],
      [
       80.0598207,
       13.0243024
      ],
      [
       80.0580373,
       13.0242003
      ],
      [
       80.0571884,
       13.0237121
      ],
      [
       80.0561575,
       13.023389
      ],
      [
       80.0555856,
       13.0233032
      ],
      [
       80.0549263,
       13.0240435
      ],
      [
       80.0542442,
       13.0239117
      ],
      [
       80.0532165,
       13.0236312
      ],
      [
       80.0517813,
       13.022317
      ],
      [
       80.0510567,
       13.0218362
      ],
      [
       80.0495418,
       13.0217102
      ],
      [
       80.047345,
       13.0216951
      ],
      [
       80.0463427,
       13.0217358
      ],
      [
       80.0447518,
       13.0226799
      ],
      [
       80.0441395,
       13.0216774
      ],
      [
       80.043265,
       13.0219623
      ],
      [
       80.0433918,
       13.0230447
      ],
      [
       80.0438087,
       13.0238975
      ],
      [
       80.0439243,
       13.0250355
      ],
      [
       80.0436653,
       13.0257257
      ],
      [
       80.0431586,
       13.0260236
      ],
      [
       80.0433107,
       13.0248026
      ],
      [
       80.0427537,
       13.0240286
      ],
      [
       80.0424754,
       13.0231036
      ],
      [
       80.04254,
       13.0220302
      ],
      [
       80.042743,
       13.0210019
      ],
      [
       80.0433957,
       13.0203131
      ],
      [
       80.0420157,
       13.0189702
      ],
      [
       80.0413356,
       13.0181847
      ],
      [
       80.0403829,
       13.0172488
      ],
      [
       80.0383623,
       13.0163494
      ],
      [
       80.0374865,
       13.0169178
      ],
      [
       80.0364378,
       13.0171825
      ],
      [
       80.0353903,
       13.0175137
      ],
      [
       80.0349398,
       13.0173188
      ],
      [
       80.034416,
       13.0168435
      ],
      [
       80.0330215,
       13.0167334
      ],
      [
       80.032464,
       13.0171128
      ],
      [
       80.0320302,
       13.0179909
      ],
      [
       80.0314348,
       13.0187749
      ],
      [
       80.0303597,
       13.0199563
      ],
      [
       80.028375,
       13.0198115
      ],
      [
       80.0267783,
       13.0193018
      ],
      [
       80.0253529,
       13.0204693
      ],
      [
       80.0239202,
       13.020432
      ],
      [
       80.0236414,
       13.0189313
      ],
      [
       80.0231076,
       13.0184013
      ],
      [
       80.0222097,
       13.0184448
      ],
      [
       80.0222767,
       13.01932
      ],
      [
       80.0221192,
       13.0200927
      ],
      [
       80.021075,
       13.0195238
      ],
      [
       80.0205812,
       13.0187192
      ],
      [
       80.0212418,
       13.0183282
      ],
      [
       80.0225827,
       13.0177651
      ],
      [
       80.0232267,
       13.0170979
      ],
      [
       80.0231679,
       13.0166849
      ],
      [
       80.0224835,
       13.0165158
      ],
      [
       80.0218455,
       13.017285
      ],
      [
       80.0209738,
       13.017177
      ],
      [
       80.0196633,
       13.0171813
      ],
      [
       80.0193243,
       13.0166935
      ],
      [
       80.0186968,
       13.0169112
      ],
      [
       80.0186394,
       13.0165841
      ],
      [
       80.0192279,
       13.0160193
      ],
      [
       80.0197755,
       13.015077
      ],
      [
       80.0189524,
       13.0141549
      ],
      [
       80.0196375,
       13.0132457
      ],
      [
       80.0202392,
       13.0127761
      ],
      [
       80.0224429,
       13.0121333
      ],
      [
       80.023094,
       13.0119056
      ],
      [
       80.0231729,
       13.0110666
      ],
      [
       80.0241082,
       13.0105567
      ],
      [
       80.0259969,
       13.010323
      ],
      [
       80.0270725,
       13.0096766
      ],
      [
       80.0271519,
       13.0092021
      ],
      [
       80.0279257,
       13.0083965
      ],
      [
       80.0311159,
       13.0079083
      ],
      [
       80.03411,
       13.0062396
      ],
      [
       80.0361735,
       13.0039298
      ],
      [
       80.0383054,
       13.0026217
      ],
      [
       80.0398765,
       13.0023707
      ],
      [
       80.0417018,
       13.0030913
      ],
      [
       80.0429237,
       13.0043804
      ],
      [
       80.0432999,
       13.0045943
      ],
      [
       80.0438395,
       13.0046557
      ],
      [
       80.0446304,
       13.0035623
      ],
      [
       80.0445685,
       13.0027
      ],
      [
       80.0440735,
       13.0002293
      ],
      [
       80.0429299,
       12.9986932
      ],
      [
       80.0421833,
       12.9970916
      ],
      [
       80.0406135,
       12.995266
      ],
      [
       80.0394816,
       12.9931407
      ],
      [
       80.0394692,
       12.990867
      ],
      [
       80.0391885,
       12.9872493
      ],
      [
       80.0385302,
       12.9864397
      ],
      [
       80.0389826,
       12.9860604
      ],
      [
       80.0387332,
       12.9857108
      ],
      [
       80.0381655,
       12.9859902
      ],
      [
       80.0375217,
       12.9852375
      ],
      [
       80.0364703,
       12.9853211
      ],
      [
       80.0352239,
       12.984547
      ],
      [
       80.0355239,
       12.9834802
      ],
      [
       80.0360405,
       12.9825738
      ],
      [
       80.0359823,
       12.9814202
      ],
      [
       80.0364773,
       12.9804376
      ],
      [
       80.0371708,
       12.9816606
      ],
      [
       80.0374144,
       12.9832929
      ],
      [
       80.0387679,
       12.9841376
      ],
      [
       80.0392383,
       12.9830629
      ],
      [
       80.0387448,
       12.9800311
      ],
      [
       80.0388736,
       12.9788183
      ],
      [
       80.0400752,
       12.9780029
      ],
      [
       80.041191,
       12.9800938
      ],
      [
       80.0437316,
       12.9809941
      ]
     ]
    ]
   }
  },
  {
   "type": "Feature",
   "properties": {
    "id": "mallathahalli",
    "name": "Mallathahalli Lake",
    "city": "Bengaluru",
    "state": "Karnataka",
    "source": "OpenStreetMap",
    "osm_id": "osm-w37898906",
    "note": "Demo lake near ITI Layout, west Bengaluru"
   },
   "geometry": {
    "type": "Polygon",
    "coordinates": [
     [
      [
       77.492965,
       12.9659658
      ],
      [
       77.493234,
       12.9651646
      ],
      [
       77.4934212,
       12.9647664
      ],
      [
       77.4934403,
       12.9646469
      ],
      [
       77.4933634,
       12.9639136
      ],
      [
       77.4931077,
       12.9633602
      ],
      [
       77.4930909,
       12.9631338
      ],
      [
       77.4931759,
       12.9630667
      ],
      [
       77.4947629,
       12.962636
      ],
      [
       77.4948962,
       12.9626651
      ],
      [
       77.4949774,
       12.9627422
      ],
      [
       77.4952566,
       12.9631636
      ],
      [
       77.495495,
       12.9637311
      ],
      [
       77.4956074,
       12.9639269
      ],
      [
       77.4961284,
       12.964627
      ],
      [
       77.4961692,
       12.9650982
      ],
      [
       77.4960671,
       12.9657287
      ],
      [
       77.4959513,
       12.9659046
      ],
      [
       77.4957436,
       12.9661137
      ],
      [
       77.4957092,
       12.9663042
      ],
      [
       77.4957538,
       12.9664542
      ],
      [
       77.4958185,
       12.9665417
      ],
      [
       77.4962782,
       12.9666214
      ],
      [
       77.4963156,
       12.9666745
      ],
      [
       77.496309,
       12.9667211
      ],
      [
       77.4956993,
       12.9670262
      ],
      [
       77.4955359,
       12.9670627
      ],
      [
       77.4948684,
       12.9671092
      ],
      [
       77.4933225,
       12.9673481
      ],
      [
       77.4932135,
       12.967295
      ],
      [
       77.4931216,
       12.9671722
      ],
      [
       77.4929839,
       12.9661613
      ],
      [
       77.4934977,
       12.9661742
      ],
      [
       77.4937515,
       12.9663646
      ],
      [
       77.4938654,
       12.9663924
      ],
      [
       77.4940932,
       12.9663754
      ],
      [
       77.4942463,
       12.9663269
      ],
      [
       77.4944097,
       12.966229
      ],
      [
       77.4944796,
       12.9660658
      ],
      [
       77.4944687,
       12.9658813
      ],
      [
       77.494407,
       12.9657586
      ],
      [
       77.4943051,
       12.9656618
      ],
      [
       77.4941989,
       12.9656136
      ],
      [
       77.4940232,
       12.965597
      ],
      [
       77.4937794,
       12.9656749
      ],
      [
       77.4936384,
       12.9658916
      ],
      [
       77.4935272,
       12.9659616
      ],
      [
       77.4933556,
       12.965999
      ],
      [
       77.492965,
       12.9659658
      ]
     ]
    ]
   }
  }
 ]
}